{
    "links": {
        "self": "http://www.neowsapp.com/rest/v1/neo/54053931?api_key=iIulBulltgU6a56xZRHN4H3l9WmuAYTsLGpBGhQ2"
    },
    "id": "54053931",
    "neo_reference_id": "54053931",
    "name": "(2020 RV3)",
    "designation": "2020 RV3",
    "nasa_jpl_url": "http://ssd.jpl.nasa.gov/sbdb.cgi?sstr=54053931",
    "absolute_magnitude_h": 24.393,
    "estimated_diameter": {
        "kilometers": {
            "estimated_diameter_min": 0.0351523996,
            "estimated_diameter_max": 0.0786031551
        },
        "meters": {
            "estimated_diameter_min": 35.1523996078,
            "estimated_diameter_max": 78.6031550953
        },
        "miles": {
            "estimated_diameter_min": 0.0218426817,
            "estimated_diameter_max": 0.0488417211
        },
        "feet": {
            "estimated_diameter_min": 115.3293987293,
            "estimated_diameter_max": 257.884375363
        }
    },
    "is_potentially_hazardous_asteroid": false,
    "close_approach_data": [
        {
            "close_approach_date": "2011-09-22",
            "close_approach_date_full": "2011-Sep-22 20:46",
            "epoch_date_close_approach": 1316724360000,
            "relative_velocity": {
                "kilometers_per_second": "7.3571532629",
                "kilometers_per_hour": "26485.751746568",
                "miles_per_hour": "16457.2161338605"
            },
            "miss_distance": {
                "astronomical": "0.1954829237",
                "lunar": "76.0428573193",
                "kilometers": "29243829.006892519",
                "miles": "18171272.7317700022"
            },
            "orbiting_body": "Earth"
        },
        {
            "close_approach_date": "2020-09-18",
            "close_approach_date_full": "2020-Sep-18 03:52",
            "epoch_date_close_approach": 1600401120000,
            "relative_velocity": {
                "kilometers_per_second": "7.1152684227",
                "kilometers_per_hour": "25614.9663215941",
                "miles_per_hour": "15916.1439346594"
            },
            "miss_distance": {
                "astronomical": "0.1630240887",
                "lunar": "63.4163705043",
                "kilometers": "24388056.428211069",
                "miles": "15154035.5625239922"
            },
            "orbiting_body": "Earth"
        },
        {
            "close_approach_date": "2029-09-14",
            "close_approach_date_full": "2029-Sep-14 11:16",
            "epoch_date_close_approach": 1884078960000,
            "relative_velocity": {
                "kilometers_per_second": "7.1330352808",
                "kilometers_per_hour": "25678.9270109494",
                "miles_per_hour": "15955.8866196646"
            },
            "miss_distance": {
                "astronomical": "0.1783567511",
                "lunar": "69.3807761779",
                "kilometers": "26681790.064680157",
                "miles": "16579295.5540418866"
            },
            "orbiting_body": "Earth"
        }
    ],
    "orbital_data": {
        "orbit_id": "4",
        "orbit_determination_date": "2020-10-27 07:14:31",
        "first_observation_date": "2020-09-10",
        "last_observation_date": "2020-09-24",
        "data_arc_in_days": 14,
        "observations_used": 26,
        "orbit_uncertainty": "7",
        "minimum_orbit_intersection": ".162799",
        "jupiter_tisserand_invariant": "4.526",
        "epoch_osculation": "2459000.5",
        "eccentricity": ".2136837706818813",
        "semi_major_axis": "1.481564921375789",
        "inclination": "13.52273596931533",
        "ascending_node_longitude": "173.054252172642",
        "orbital_period": "658.6875533700504",
        "perihelion_distance": "1.164978542466206",
        "perihelion_argument": "189.7122787556233",
        "aphelion_distance": "1.798151300285373",
        "perihelion_time": "2459117.988474969953",
        "mean_anomaly": "295.7876875420154",
        "mean_motion": ".5465413733083736",
        "equinox": "J2000",
        "orbit_class": {
            "orbit_class_type": "AMO",
            "orbit_class_description": "Near-Earth asteroid orbits similar to that of 1221 Amor",
            "orbit_class_range": "1.017 AU < q (perihelion) < 1.3 AU"
        }
    },
    "is_sentry_object": false
}